0 COSMOS 475
1 05846U 72009A   13282.11371925  .00000042  00000-0  65557-4 0  2920
2 05846 074.0479 268.1447 0021830 133.3412 273.3833 13.76043987 89856
0 COSMOS 475
1 05846U 72009A   13283.13228334  .00000022  00000-0  45791-4 0  2935
2 05846 074.0479 266.4530 0021805 131.3805 279.1451 13.76044270 89997
0 COSMOS 475
1 05846U 72009A   13284.15110411  .00000029  00000-0  52436-4 0  2946
2 05846 074.0480 264.7608 0021794 129.3484 286.2511 13.76044492 90133
0 COSMOS 475
1 05846U 72009A   13286.19338770 -.00000006  00000-0  16605-4 0  2968
2 05846 074.0483 261.3686 0021757 125.3969 323.3381 13.76044860 90416
0 COSMOS 475
1 05846U 72009A   13287.44111891  .00000007  00000-0  30107-4 0  2974
2 05846 074.0485 259.2962 0021746 122.9124 024.4353 13.76044917 90584
0 COSMOS 475
1 05846U 72009A   13288.45919190  .00000024  00000-0  47245-4 0  2985
2 05846 074.0488 257.6052 0021741 120.8637 027.8574 13.76045039 90724
0 COSMOS 475
1 05846U 72009A   13289.47487734  .00000025  00000-0  48257-4 0  2998
2 05846 074.0490 255.9183 0021730 118.8736 019.3990 13.76045094 90862
0 COSMOS 475
1 05846U 72009A   13290.49122748  .00000050  00000-0  73868-4 0  3000
2 05846 074.0492 254.2304 0021736 116.7807 014.3355 13.76045084 91009
0 COSMOS 475
1 05846U 72009A   13291.85351632  .00000059  00000-0  83525-4 0  3018
2 05846 074.0493 251.9681 0021730 114.1184 282.8872 13.76045182 91191
0 COSMOS 475
1 05846U 72009A   13292.86986628  .00000072  00000-0  96714-4 0  3029
2 05846 074.0494 250.2803 0021717 112.1323 277.7160 13.76045212 91331
0 COSMOS 475
1 05846U 72009A   13294.19213787  .00000057  00000-0  81223-4 0  3039
2 05846 074.0495 248.0845 0021712 109.5361 348.0418 13.76045411 91519
0 COSMOS 475
1 05846U 72009A   13295.43629095  .00000052  00000-0  75911-4 0  3043
2 05846 074.0495 246.0185 0021691 107.1109 031.3632 13.76045742 91689
